CUTE-1 (CO-55)          
1 27844U 03031E   26129.47068763  .00000224  00000+0  11576-3 0  9993
2 27844  98.6748 138.5155 0008445 302.0432  57.9926 14.24311459186166
CUBESAT XI-IV (CO-57)   
1 27848U 03031J   26129.43977631  .00000198  00000+0  10632-3 0  9998
2 27848  98.6780 138.2288 0008652 322.9503  37.1078 14.23599872185860
CUBESAT XI-V            
1 28895U 05043F   26129.39995157  .00001059  00000+0  17481-3 0  9990
2 28895  98.2943 284.2197 0013359 333.2629  26.7887 14.72529384 96043
CUTE-1.7+APD II (CO-65) 
1 32785U 08021C   26129.46358632  .00003511  00000+0  22557-3 0  9996
2 32785  97.8266 110.0941 0009832 150.1468 210.0322 15.09087619979357
CANX-2                  
1 32790U 08021H   26129.47205198  .00002686  00000+0  19189-3 0  9990
2 32790  97.8631 108.5123 0010759 165.1046 195.0498 15.05344283978984
SEEDS II (CO-66)        
1 32791U 08021J   26129.53490015  .00013075  00000+0  43294-3 0  9990
2 32791  97.7532 125.6314 0005092  91.1474 269.0349 15.31438560981378
SWISSCUBE               
1 35932U 09051B   26129.30651368  .00000773  00000+0  16264-3 0  9997
2 35932  98.4059  36.5157 0006464 346.0075  14.0945 14.62405622883476
BEESAT-1                
1 35933U 09051C   26129.29588384  .00000650  00000+0  14056-3 0  9994
2 35933  98.3987  36.2211 0005314   3.5007 356.6230 14.61656191883501
ITUPSAT1                
1 35935U 09051E   26128.22506841  .00000647  00000+0  14375-3 0  9996
2 35935  98.4072  34.3677 0007794  12.9733 347.1666 14.60379872882906
TISAT 1                 
1 36799U 10035E   26129.35757299  .00016108  00000+0  55266-3 0  9992
2 36799  98.0692  72.5163 0003837  59.9584 300.2034 15.30249315861768
AEROCUBE 4.5A           
1 38767U 12048K   26129.53318730  .00119503  00000+0  71333-3 0  9994
2 38767  64.6299 166.0390 0019764 216.7760 143.2038 15.77033795366531
STRAND-1                
1 39090U 13009E   26129.48524191  .00000210  00000+0  84864-4 0  9994
2 39090  98.3917 310.6741 0008426 355.2659   4.8447 14.37140171691504
BRITE-AUSTRIA           
1 39091U 13009F   26129.48151487  .00000127  00000+0  57881-4 0  9995
2 39091  98.3988 309.8772 0010165   2.9540 357.1705 14.36526473691496
NEE-01 PEGASO           
1 39151U 13018B   26129.34130147  .00002475  00000+0  24090-3 0  9990
2 39151  98.1171 272.2253 0011281 294.0294  65.9744 14.93470711704906
POPACS 2                
1 39269U 13055E   26128.91061448  .00014703  00000+0  25226-3 0  9999
2 39269  80.9920 189.1231 0419805 320.1325  36.9726 14.90325554657365
POPACS 3                
1 39270U 13055F   26128.38759711  .00012939  00000+0  31052-3 0  9992
2 39270  81.0011 272.3074 0555040 191.0287 167.8332 14.55142260632760
ZACUBE-1 (TSHEPISOSAT)  
1 39417U 13066B   26129.47671522  .00003874  00000+0  30359-3 0  9998
2 39417  97.8124  91.6044 0042376  23.4307 336.8835 15.00888362674927
WNISAT-1                
1 39423U 13066H   26129.36866382  .00000396  00000+0  81055-4 0  9999
2 39423  97.7155 281.2912 0162971 354.6923   5.2543 14.58015227661074
TRITON-1                
1 39427U 13066M   26129.53072706  .00001160  00000+0  14466-3 0  9992
2 39427  97.8264  40.2185 0090455   1.4549 358.6910 14.81533105668361
GOMX-1                  
1 39430U 13066Q   26129.50630329  .00001467  00000+0  22686-3 0  9997
2 39430  97.6511 332.4073 0128236 201.1545 158.4331 14.69309091664230
CUBEBUG-2 (LO-74)       
1 39440U 13066AA  26129.40782529  .00003053  00000+0  28629-3 0  9993
2 39440  97.8886  78.2384 0058641 154.4064 206.0079 14.93476844671208
NEE-02 KRYSAOR          
1 39441U 13066AB  26129.37017609  .00001230  00000+0  14022-3 0  9997
2 39441  97.8876  68.8713 0065740 195.7722 164.1448 14.86476070670437
FUNCUBE-1 (AO-73)       
1 39444U 13066AE  26129.46954043  .00006573  00000+0  41405-3 0  9992
2 39444  97.8256 100.1281 0035840 338.2611  21.7094 15.08984310673828
UWE-3                   
1 39446U 13066AG  26128.84211439  .00003158  00000+0  27466-3 0  9997
2 39446  97.8687  84.6693 0051190  90.6298 270.0789 14.96703614671692
BRITE-CA1 (TORONTO)     
1 40020U 14033L   26129.30889472  .00000633  00000+0  10253-3 0  9993
2 40020  97.9683 258.9676 0079538  42.2047 318.5247 14.72623647636494
DUCHIFAT-1              
1 40021U 14033M   26129.10684208  .00070523  00000+0  93897-3 0  9992
2 40021  98.0510 183.0115 0005614 196.6222 163.4848 15.57905226649651
NANOSATC-BR1            
1 40024U 14033Q   26129.50828979  .00011961  00000+0  41152-3 0  9992
2 40024  98.0757 158.5041 0002181 344.2383  15.8788 15.30242502648066
QB50P1                  
1 40025U 14033R   26129.45496641  .00006677  00000+0  33503-3 0  9993
2 40025  98.0988 137.9036 0008728  10.8785 349.2634 15.17661614647150
QB50P2                  
1 40032U 14033Y   26129.52533624  .00005570  00000+0  30500-3 0  9997
2 40032  98.0759 124.0171 0006104 317.2310  42.8444 15.14665856646811
PERSEUS-M2              
1 40037U 14033AD  26129.52251635  .00001010  00000+0  96893-4 0  9994
2 40037  97.9939  79.2863 0013102  69.6458 290.6168 14.95387268645002
